      2.10          N: GNSS NAV DATA                        RINEX VERSION / TYPE
fic2rin                                 03/25/2023 00:17:37 PGM / RUN BY / DATE
                                                            END OF HEADER
8  23  3 24  1 59 44.0 -.114383641630D-03 -.181898940355D-11  .000000000000D+00
     .290000000000D+02 -.620937500000D+02  .496949271360D-08 -.264000285632D+00
    -.313669443130D-05  .842454039957D-02  .279024243355D-05  .515366891479D+04
     .439184000000D+06  .117346644402D-06  .242939056493D+01  .763684511185D-07
     .959436000383D+00  .322968750000D+03  .241843490164D+00 -.866893252441D-08
    -.217866217860D-09  .100000000000D+01  .225400000000D+04  .000000000000D+00
     .240000000000D+01  .000000000000D+00  .512227416039D-08  .290000000000D+02
     .432000000000D+06  .400000000000D+01
21 23  3 24 12  0  0.0  .154330860823D-03  .000000000000D+00  .000000000000D+00
     .450000000000D+02 -.676875000000D+02  .410159941951D-08 -.134894078875D+01
    -.367872416973D-05  .248102127807D-01  .117942690849D-04  .515364846420D+04
     .475200000000D+06 -.439584255219D-06 -.286641043073D+01 -.113621354103D-06
     .961895597235D+00  .160843750000D+03 -.789951491530D+00 -.811890961375D-08
     .207151485834D-09  .100000000000D+01  .225400000000D+04  .000000000000D+00
     .240000000000D+01  .000000000000D+00 -.102445483208D-07  .450000000000D+02
     .468000000000D+06  .400000000000D+01
19 23  3 24 12  0  0.0  .294282566756D-03  .511590769747D-11  .000000000000D+00
     .290000000000D+02 -.803437500000D+02  .445197115675D-08  .826108616363D+00
    -.448524951935D-05  .920778466389D-02  .403262674809D-05  .515360949516D+04
     .475200000000D+06  .875443220139D-07  .256171516688D+01 -.197440385818D-06
     .974074210306D+00  .310593750000D+03  .225829311282D+01 -.837034865862D-08
    -.422517599554D-09  .100000000000D+01  .225400000000D+04  .000000000000D+00
     .240000000000D+01  .000000000000D+00 -.153668224812D-07  .290000000000D+02
     .468000000000D+06  .400000000000D+01
16 23  3 24 12  0  0.0 -.513509847224D-03  .238742359215D-11  .000000000000D+00
     .620000000000D+02  .950000000000D+02  .467805200250D-08 -.450730351597D+00
     .510178506374D-05  .133912127931D-01  .539608299732D-05  .515357050133D+04
     .475200000000D+06  .931322574615D-08  .149595221486D+01  .182539224625D-06
     .965461642918D+00  .275937500000D+03  .781907405331D+00 -.849749681199D-08
     .190365072327D-09  .100000000000D+01  .225400000000D+04  .000000000000D+00
     .240000000000D+01  .000000000000D+00 -.102445483208D-07  .620000000000D+02
     .468000000000D+06  .400000000000D+01
15 23  3 24 12  0  0.0  .243741087615D-04  .341060513165D-11  .000000000000D+00
     .690000000000D+02 -.321875000000D+02  .564987819725D-08 -.225364451800D+01
    -.177510082722D-05  .147732883925D-01  .431016087532D-05  .515368653488D+04
     .475200000000D+06  .189989805222D-06 -.825015575176D+00  .931322574615D-08
     .931901573647D+00  .273093750000D+03  .118486921577D+01 -.846428114271D-08
    -.185722021782D-10  .100000000000D+01  .225400000000D+04  .000000000000D+00
     .240000000000D+01  .000000000000D+00 -.107102096081D-07  .690000000000D+02
     .468000000000D+06  .400000000000D+01
26 23  3 24 12  0  0.0  .241977628320D-03  .000000000000D+00  .000000000000D+00
     .730000000000D+02  .109812500000D+03  .527521973408D-08  .507720396867D+00
     .593252480030D-05  .787283387035D-02  .629760324955D-05  .515366275787D+04
     .475200000000D+06  .260770320892D-07  .134148538810D+01  .912696123123D-07
     .934279210514D+00  .239218750000D+03  .461747160480D+00 -.864678874489D-08
     .169292766009D-09  .100000000000D+01  .225400000000D+04  .000000000000D+00
     .240000000000D+01  .000000000000D+00  .698491930962D-08  .730000000000D+02
     .468000000000D+06  .400000000000D+01
17 23  3 24 12  0  0.0  .707129482180D-03  .193267624127D-11  .000000000000D+00
     .590000000000D+02 -.705937500000D+02  .448232956416D-08 -.133422472379D+01
    -.345706939697D-05  .135528545361D-01  .393763184547D-05  .515373248100D+04
     .475200000000D+06 -.201165676117D-06  .251713192504D+01  .201165676117D-06
     .975015492760D+00  .313937500000D+03 -.141459234041D+01 -.840785022071D-08
    -.357514891930D-09  .100000000000D+01  .225400000000D+04  .000000000000D+00
     .240000000000D+01  .000000000000D+00 -.111758708954D-07  .590000000000D+02
     .468000000000D+06  .400000000000D+01
23 23  3 24 12  0  0.0  .124289654195D-04  .227373675443D-11  .000000000000D+00
     .188000000000D+03  .293437500000D+02  .439268297288D-08  .187439474294D+01
     .147707760334D-05  .302832562011D-02  .824406743050D-05  .515364893341D+04
     .475200000000D+06  .316649675369D-07 -.176327668047D+01  .931322574615D-07
     .972603759662D+00  .223468750000D+03 -.309038181060D+01 -.798854704076D-08
     .638955186477D-09  .100000000000D+01  .225400000000D+04  .000000000000D+00
     .240000000000D+01  .000000000000D+00 -.838190317154D-08  .188000000000D+03
     .468000000000D+06  .400000000000D+01
18 23  3 24 12  0  0.0 -.193424988538D-03 -.165982783074D-10  .000000000000D+00
     .132000000000D+03 -.801250000000D+02  .385266047877D-08  .291429658319D+01
    -.404380261898D-05  .302342057694D-02  .116676092148D-04  .515369071007D+04
     .475200000000D+06 -.204890966415D-07 -.276268884988D+01 -.372529029846D-08
     .973840579363D+00  .160625000000D+03 -.312667879918D+01 -.770782106169D-08
     .264296723305D-10  .100000000000D+01  .225400000000D+04  .000000000000D+00
     .240000000000D+01  .000000000000D+00 -.838190317154D-08  .900000000000D+03
     .468000000000D+06  .400000000000D+01
28 23  3 24 12  0  0.0  .508949160576D-04  .886757334229D-11  .000000000000D+00
     .199000000000D+03  .496875000000D+01  .440696928225D-08  .582638061397D+00
     .383704900742D-06  .904800603166D-03  .125542283058D-04  .515365370560D+04
     .475200000000D+06 -.428408384323D-07  .325026653545D+00 -.167638063431D-07
     .962089306607D+00  .140093750000D+03  .170983841596D+01 -.787104214621D-08
    -.358943522867D-09  .100000000000D+01  .225400000000D+04  .000000000000D+00
     .240000000000D+01  .000000000000D+00 -.139698386192D-08  .711000000000D+03
     .468000000000D+06  .400000000000D+01
22 23  3 24 12  0  0.0  .451238825917D-03  .716227077646D-11  .000000000000D+00
     .520000000000D+02 -.368437500000D+02  .495163482689D-08 -.152043973434D+01
    -.160373747349D-05  .141621213406D-01  .584498047829D-05  .515360095596D+04
     .475200000000D+06  .178813934326D-06 -.603626143315D+00  .286847352982D-06
     .962489037269D+00  .265187500000D+03 -.181775190519D+01 -.818212653270D-08
    -.280011663610D-09  .100000000000D+01  .225400000000D+04  .000000000000D+00
     .240000000000D+01  .630000000000D+02 -.791624188423D-08  .520000000000D+02
     .468000000000D+06  .400000000000D+01
18 23  3 24 12 14 40.0 -.193439889699D-03 -.165982783074D-10  .000000000000D+00
     .133000000000D+03 -.792812500000D+02  .385837500252D-08  .304266840536D+01
    -.399909913540D-05  .302376295440D-02  .118035823107D-04  .515369009399D+04
     .476080000000D+06 -.111758708954D-07 -.276269563928D+01 -.745058059692D-08
     .973840630565D+00  .157968750000D+03 -.312669699349D+01 -.770139222247D-08
     .271439877989D-10  .100000000000D+01  .225400000000D+04  .000000000000D+00
     .240000000000D+01  .000000000000D+00 -.838190317154D-08  .901000000000D+03
     .468900000000D+06  .400000000000D+01
10 23  3 24 11 59 44.0 -.298698432744D-04 -.159161572810D-11  .000000000000D+00
     .500000000000D+01  .287187500000D+02  .433768068181D-08  .675398292593D+00
     .149756669998D-05  .845204608049D-02  .805780291557D-05  .515368140602D+04
     .475184000000D+06 -.428408384323D-07 -.173638499556D+01  .100582838058D-06
     .977467361016D+00  .234437500000D+03 -.243042864867D+01 -.801676250177D-08
     .555023118941D-09  .100000000000D+01  .225400000000D+04  .000000000000D+00
     .240000000000D+01  .000000000000D+00  .232830643654D-08  .500000000000D+01
     .471060000000D+06  .400000000000D+01
3  23  3 24 11 59 44.0 -.343977939337D-03  .716227077646D-11  .000000000000D+00
     .140000000000D+02  .353125000000D+02  .424696261733D-08  .163287984320D+01
     .184215605259D-05  .458426133264D-02  .772438943386D-05  .515369875717D+04
     .475184000000D+06 -.156462192535D-06 -.173372111244D+01 -.428408384323D-07
     .977718634751D+00  .237312500000D+03  .100593963089D+01 -.799247577584D-08
     .635740766869D-09  .100000000000D+01  .225400000000D+04  .000000000000D+00
     .240000000000D+01  .000000000000D+00  .186264514923D-08  .140000000000D+02
     .471600000000D+06  .400000000000D+01
3  23  3 24 13 59 44.0 -.343926716596D-03  .716227077646D-11  .000000000000D+00
     .150000000000D+02  .304375000000D+02  .412160025262D-08  .268321307640D+01
     .161863863468D-05  .458514492493D-02  .826641917229D-05  .515369660759D+04
     .482384000000D+06  .707805156708D-07 -.173377781661D+01 -.596046447754D-07
     .977724264060D+00  .229531250000D+03  .100576979049D+01 -.777103798064D-08
     .639669501945D-09  .100000000000D+01  .225400000000D+04  .000000000000D+00
     .240000000000D+01  .000000000000D+00  .186264514923D-08  .150000000000D+02
     .475200000000D+06  .400000000000D+01
